AQUA                    
1 27424U 02022A   19112.91619817  .00000075  00000-0  26608-4 0  9999
2 27424  98.1992  54.6319 0001066 176.4970 254.9806 14.57128645902484
DIRECTV 5 (TEMPO 1)     
1 27426U 02023A   19112.64988652 -.00000072  00000-0  00000-0 0  9990
2 27426   0.0147 223.0877 0003814 183.2931 287.8589  1.00272702 62137
INTELSAT 905 (IS-905)   
1 27438U 02027A   19112.88237015 -.00000200  00000-0  00000-0 0  9996
2 27438   0.3013  99.4285 0002664 284.9488 119.4269  1.00272179 61773
EXPRESS-A4              
1 27441U 02029A   19112.84012946 -.00000259  00000-0  00000-0 0  9996
2 27441   7.1667  52.5029 0011589  63.3540 182.8808  1.00269111 61772
GALAXY 3C (G-3C)        
1 27445U 02030A   19112.49583447 -.00000167  00000-0  00000-0 0  9990
2 27445   0.0180 286.0191 0001847  49.9000 317.7884  1.00271694 20305
IRIDIUM 97              
1 27450U 02031A   19112.89118171  .00000184  00000-0  53526-4 0  9992
2 27450  86.4270  36.9551 0002385  85.5711 274.5760 14.38610087887069
EUTELSAT 5 WEST A       
1 27460U 02035A   19112.88620853 -.00000058  00000-0  00000-0 0  9997
2 27460   0.0374 330.6285 0006304  68.2873 125.7618  1.00272913 61427
N-STAR C                
1 27461U 02035B   19112.77070822 -.00000326  00000-0  00000-0 0  9999
2 27461   5.8680  61.1823 0005263 355.3824 207.4348  1.00271004 61534
COSMOS 2390             
1 27464U 02036A   19112.70510176  .00000008  00000-0 -14513-4 0  9992
2 27464  82.4865 178.3747 0024404 209.7274 150.2422 12.44569805762836
COSMOS 2391             
1 27465U 02036B   19112.75159696  .00000010  00000-0  36291-5 0  9994
2 27465  82.4865 175.9556 0025497 206.8050 153.1717 12.44886671763025
METEOSAT-8 (MSG-1)      
1 27509U 02040B   19112.89554277  .00000124  00000-0  00000-0 0  9997
2 27509   5.9959  55.7863 0002637  15.8893 143.0269  1.00279838 61053
INTELSAT 906 (IS-906)   
1 27513U 02041A   19112.89653490 -.00000001  00000-0  00000+0 0  9994
2 27513   0.0210 243.0547 0002077 155.9572 198.5457  1.00272618 60774
HISPASAT 30W-4          
1 27528U 02044A   19112.87902833 -.00000233  00000-0  00000-0 0  9997
2 27528   0.1098  83.9890 0006355 309.9639 102.9228  1.00273233 16786
INTEGRAL                
1 27540U 02048A   19111.67827385  .00000503  00000-0  00000-0 0  9999
2 27540  49.4002 147.7594 8747146 276.8395   3.7755  0.37598216 16839
TDRS 10                 
1 27566U 02055A   19112.70391867  .00000079  00000-0  00000-0 0  9999
2 27566   6.1857  55.4835 0009682 286.4701 310.7361  1.00275730 60033
NSS-6                   
1 27603U 02057A   19112.91160557 -.00000286  00000-0  00000-0 0  9997
2 27603   0.0633  93.4083 0001893 242.4082 298.0159  1.00272959 59904
LATINSAT B              
1 27606U 02058B   19112.89217105 -.00000055  00000-0  13736-4 0  9998
2 27606  64.5549 293.0314 0092409 272.7884  86.2643 14.72208802877207
SAUDISAT 1C (SO-50)     
1 27607U 02058C   19112.75115281 -.00000003  00000-0  20477-4 0  9999
2 27607  64.5550 223.6821 0082378 267.3618  91.8053 14.75537741878502
LATINSAT A              
1 27612U 02058H   19112.56502620 -.00000047  00000-0  13469-4 0  9992
2 27612  64.5543 100.1259 0058404 253.6789 105.7887 14.79411739880914
NIMIQ 2                 
1 27632U 02062A   19112.64726944  .00000009  00000-0  00000-0 0  9995
2 27632   3.4244  78.6144 0004137 355.3817 246.3267  1.00274733 18002
CORIOLIS                
1 27640U 03001A   19112.97170764 -.00000021  00000-0  10649-4 0  9996
2 27640  98.7340 123.6997 0014438 164.1352 252.7157 14.19006156843660
SORCE                   
1 27651U 03004A   19112.51111790  .00000058  00000-0  20178-4 0  9992
2 27651  39.9949 162.8284 0023456 295.2575  64.5784 14.88986381881313
NAVSTAR 51 (USA 166)    
1 27663U 03005A   19112.29467946 -.00000063  00000-0  00000+0 0  9992
2 27663  56.3565 318.5538 0106950  31.4581 143.2854  2.00577197118894
INTELSAT 907 (IS-907)   
1 27683U 03007A   19112.88072972 -.00000218  00000-0  00000-0 0  9995
2 27683   0.0229 236.1482 0002789 164.7331  99.3138  1.00271020 59244
USA 167                 
1 27691U 03008A   19112.77907804  .00000043  00000-0  00000+0 0  9998
2 27691   5.8675  61.0720 0004339 327.8114 332.0507  1.00273862  5429
NAVSTAR 52 (USA 168)    
1 27704U 03010A   19112.28081674 -.00000052  00000-0  00000+0 0  9991
2 27704  54.3224  70.3257 0249325 276.7751 214.2508  2.00554056117699
USA 169 (MILSTAR-2 4)   
1 27711U 03012A   19112.75224010 -.00000019  00000-0  00000+0 0  9999
2 27711   8.4435  47.6440 0003942 356.6488 316.9879  1.00272051  5441
GALAXY 12 (G-12)        
1 27715U 03013B   19112.64613537  .00000043  00000-0  00000-0 0  9995
2 27715   0.5178  95.7818 0002554 318.3617 259.8664  1.00273247 25944
ASIASAT 4               
1 27718U 03014A   19112.84077051  .00000137  00000-0  00000-0 0  9990
2 27718   0.0512 103.0037 0000704 246.2897 202.1885  1.00271198 19104
HELLAS-SAT 2            
1 27811U 03020A   19112.56266727 -.00000166  00000-0  00000-0 0  9993
2 27811   0.9366  97.1684 0002260 301.4099 279.0975  1.00272391 16658
THURAYA-2               
1 27825U 03026A   19112.46527338  .00000114  00000-0  00000+0 0  9992
2 27825   5.5141  31.6164 0004683 354.1868  35.9244  1.00273917 58144
OPTUS C1                
1 27831U 03028B   19112.84651620 -.00000166  00000-0  00000-0 0  9994
2 27831   0.4411 100.8615 0006439 296.0091 274.1802  1.00271165 26862
MOST                    
1 27843U 03031D   19112.94435112 -.00000028  00000-0  73603-5 0  9999
2 27843  98.7127 121.3723 0009219 224.5470 135.4966 14.20588031819750
CUTE-1 (CO-55)          
1 27844U 03031E   19112.94723465  .00000035  00000-0  35610-4 0  9993
2 27844  98.6859 122.0047 0009610 188.3923 171.7096 14.22171492820181
CUBESAT XI-IV (CO-57)   
1 27848U 03031J   19112.92322965  .00000019  00000-0  28354-4 0  9994
2 27848  98.6938 122.4685 0009276 200.0160 160.0655 14.21767457820046
ECHOSTAR 12 (RAINBOW 1) 
1 27852U 03033A   19112.49733168 -.00000216  00000-0  00000+0 0  9997
2 27852   0.0552  80.9077 0001823 286.4284 295.5611  1.00273632 57743
GALAXY 23 (G-23)        
1 27854U 03034A   19112.64770561 -.00000004  00000-0  00000+0 0  9990
2 27854   0.0156 151.3617 0003020 246.4692 284.7781  1.00273726 62342
SCISAT 1                
1 27858U 03036A   19112.90482517  .00000058  00000-0  13162-4 0  9992
2 27858  73.9318 296.8745 0009004 245.4736 114.5500 14.77242868845404
COSMOS 2400             
1 27868U 03037A   19112.71047180  .00000030  00000-0  14208-3 0  9997
2 27868  82.4729 167.8462 0021623  17.3126 342.8691 12.45136261712513
COSMOS 2401             
1 27869U 03037B   19112.69286808  .00000011  00000-0  64640-5 0  9993
2 27869  82.4722 165.3716 0022536  15.1737 345.0016 12.45454898712694
USA 170                 
1 27875U 03040A   19112.94524066 -.00000285  00000-0  00000-0 0  9992
2 27875   5.0566  66.5921 0003398 351.3119  90.6419  1.00269387  6773
MOZHAYETS 4 (RS-22)     
1 27939U 03042A   19112.88179040  .00000027  00000-0  13507-4 0  9999
2 27939  98.0302 249.8365 0011677 243.6014 116.3997 14.66770948832217
GALAXY 13 (HORIZONS 1)  
1 27954U 03044A   19112.75954219  .00000032  00000-0  00000-0 0  9999
2 27954   0.0356 114.1159 0000766 268.6054 334.2168  1.00272139 20380
IRS-P6 (RESOURCESAT-1)  
1 28051U 03046A   19112.82288094 -.00000222  00000-0 -62705-4 0  9996
2 28051  98.5201 191.2905 0057579 195.5583 164.3833 14.34150754805958
DMSP 5D-3 F16 (USA 172) 
1 28054U 03048A   19112.97196757 -.00000096  00000-0 -27225-4 0  9998
2 28054  98.8616  89.7100 0007388 347.2724  88.1375 14.13693129800233
CHUANGXIN 1 (CX-1)      
1 28058U 03049B   19112.90031223 -.00000020  00000-0  74383-5 0  9996
2 28058  98.7017 276.7973 0013605 142.4451 217.7694 14.46958486818394
YAMAL 202               
1 28089U 03053A   19112.89702578  .00000104  00000-0  00000-0 0  9993
2 28089   0.0480  80.2954 0003269 252.4672 249.8029  1.00273499 56489
UFO 11 (USA 174)        
1 28117U 03057A   19112.83046479 -.00000117  00000-0  00000-0 0  9999
2 28117   5.6318  36.7320 0006387 317.7696 230.6570  1.00271421 56257
NAVSTAR 53 (USA 175)    
1 28129U 03058A   19112.33461047  .00000011  00000-0  00000+0 0  9991
2 28129  53.1255 129.5612 0074665 281.4476  77.7521  2.00545628112400
USA 176 (DSP 22)        
1 28158U 04004A   19112.91724019 -.00000231  00000-0  00000-0 0  9996
2 28158   8.6317  41.6316 0001305  29.1088 197.4797  1.00274629  6730
ABS-4 (MOBISAT-1)       
1 28184U 04007A   19112.89200269  .00000025  00000-0  00000+0 0  9990
2 28184   0.0103 233.2884 0002050 154.3649 205.1377  1.00272343 55386
EUTELSAT 7A             
1 28187U 04008A   19112.88865113  .00000033  00000-0  00000-0 0  9998
2 28187   0.0831  43.8259 0003604  10.2031 123.5563  1.00275452 55169
NAVSTAR 54 (USA 177)    
1 28190U 04009A   19112.22268625 -.00000100  00000-0  00000+0 0  9991
2 28190  56.2583  19.3392 0093194  78.8898 198.3236  2.00568918110577
SHIYAN 1 (SY-1)         
1 28220U 04012A   19112.87035662 -.00000467  00000-0 -32818-4 0  9997
2 28220  97.7924  75.0510 0011919  18.6691 341.4967 14.99790565817537
DIRECTV 7S              
1 28238U 04016A   19112.60958737 -.00000015  00000-0  00000-0 0  9990
2 28238   0.0124 283.3273 0003141 117.5676 269.8559  1.00273569 54862
AMC-11 (GE-11)          
1 28252U 04017A   19112.64569919  .00000053  00000-0  00000-0 0  9992
2 28252   0.0219 349.9643 0002804  47.1446 274.7305  1.00272494 54726
FORMOSAT-2 (ROCSAT 2)   
1 28254U 04018A   19112.72284451  .00000322  00000-0  24437-3 0  9991
2 28254  98.7674 159.2868 0001918  90.7513  16.5477 14.00683570763029
INTELSAT 10-02          
1 28358U 04022A   19112.89354882 -.00000027  00000-0  00000-0 0  9995
2 28358   0.0172 215.9032 0003260 188.4916 126.9366  1.00272371 54463
NAVSTAR 55 (USA 178)    
1 28361U 04023A   19112.60483844  .00000003  00000-0  00000+0 0  9992
2 28361  54.0478 192.5367 0132850 230.5183 235.6791  2.00571784108662
APSTAR 5 (TELSTAR 18)   
1 28364U 04024A   19112.84293955 -.00000310  00000-0  00000-0 0  9997
2 28364   0.4425  97.7629 0003072 337.0197 217.2826  1.00271711 54425
